NORAD_CAT_ID,OBJECT_NAME,OBJECT_TYPE,EPOCH,MEAN_MOTION,ECCENTRICITY,INCLINATION,RA_OF_ASC_NODE,ARG_OF_PERICENTER,MEAN_ANOMALY,BSTAR,MEAN_MOTION_DOT,MEAN_MOTION_DDOT,TLE_LINE0,TLE_LINE1,TLE_LINE2,SEMIMAJOR_AXIS,PERIOD,APOGEE,PERIGEE,DECAYED
54762.0,STARLINK-5214,PAYLOAD,2023-05-17 19:29:10,15.08840598,0.0001094,53.2163,334.0766,78.7634,281.3481,0.00013973,1.937e-05,0.0,0 STARLINK-5214,1 54762U 22175E   23137.81193228  .00001937  00000-0  13973-3 0  9997,2 54762  53.2163 334.0766 0001094  78.7634 281.3481 15.08840598 24892,6917.879,95.438,540.5,538.987,0.0
54762.0,STARLINK-5214,PAYLOAD,2023-05-18 00:15:20,15.08845552,0.0001124,53.2159,333.1847,79.3715,280.7404,0.00026405,3.918e-05,0.0,0 STARLINK-5214,1 54762U 22175E   23138.01065099  .00003918  00000-0  26405-3 0  9999,2 54762  53.2159 333.1847 0001124  79.3715 280.7404 15.08845552 22765,6917.863,95.437,540.506,538.951,0.0
54762.0,STARLINK-5214,PAYLOAD,2023-05-18 19:19:57,15.08849749,0.0001105,53.2159,329.616,77.7499,282.3617,8.4753e-05,1.062e-05,0.0,0 STARLINK-5214,1 54762U 22175E   23138.80552823  .00001062  00000-0  84753-4 0  9991,2 54762  53.2159 329.6160 0001105  77.7499 282.3617 15.08849749 25043,6917.851,95.437,540.48,538.951,0.0
54762.0,STARLINK-5214,PAYLOAD,2023-05-19 19:10:44,15.08842104,0.0001131,53.2162,325.155,76.6262,283.4856,8.517e-05,1.068e-05,0.0,0 STARLINK-5214,1 54762U 22175E   23139.79913070  .00001068  00000-0  85170-4 0  9995,2 54762  53.2162 325.1550 0001131  76.6262 283.4856 15.08842104 23038,6917.874,95.437,540.521,538.957,0.0
54762.0,STARLINK-5214,PAYLOAD,2023-05-20 19:01:31,15.08861426,0.0001081,53.2162,320.6952,77.9867,282.1246,0.00024352,3.592e-05,0.0,0 STARLINK-5214,1 54762U 22175E   23140.79272177  .00003592  00000-0  24352-3 0  9991,2 54762  53.2162 320.6952 0001081  77.9867 282.1246 15.08861426 23186,6917.815,95.436,540.428,538.932,0.0
54762.0,STARLINK-5214,PAYLOAD,2023-05-21 04:33:50,15.08841924,0.0001359,53.2149,318.912,82.1765,277.9381,9.9609e-05,1.298e-05,0.0,0 STARLINK-5214,1 54762U 22175E   23141.19016974  .00001298  00000-0  99609-4 0  9996,2 54762  53.2149 318.9120 0001359  82.1765 277.9381 15.08841924 23241,6917.875,95.437,540.68,538.799,0.0
54762.0,STARLINK-5214,PAYLOAD,2023-05-21 10:55:23,15.0883732,0.0001421,53.2156,317.7261,101.0832,259.032,3.3896e-05,2.52e-06,0.0,0 STARLINK-5214,1 54762U 22175E   23141.45513114  .00000252  00000-0  33896-4 0  9998,2 54762  53.2156 317.7261 0001421 101.0832 259.0320 15.08837320 25441,6917.889,95.438,540.737,538.771,0.0
54762.0,STARLINK-5214,PAYLOAD,2023-05-21 18:52:19,15.08828212,0.0001007,53.2159,316.2352,100.5078,259.6028,-0.00011937,-2.186e-05,0.0,0 STARLINK-5214,1 54762U 22175E   23141.78633570 -.00002186  00000-0 -11937-3 0  9994,2 54762  53.2159 316.2352 0001007 100.5078 259.6028 15.08828212 23332,6917.916,95.438,540.478,539.085,0.0
54762.0,STARLINK-5214,PAYLOAD,2023-05-21 20:27:42,15.08833516,0.000104,53.2162,315.9373,96.0261,264.0849,9.7096e-05,1.258e-05,0.0,0 STARLINK-5214,1 54762U 22175E   23141.85257561  .00001258  00000-0  97096-4 0  9992,2 54762  53.2162 315.9373 0001040  96.0261 264.0849 15.08833516 25500,6917.9,95.438,540.485,539.046,0.0
54762.0,STARLINK-5214,PAYLOAD,2023-05-22 04:24:38,15.08838222,0.0001056,53.2162,314.4503,106.0851,254.0257,0.0010448,0.00016378,0.0,0 STARLINK-5214,1 54762U 22175E   23142.18377912  .00016378  00000-0  10448-2 0  9995,2 54762  53.2162 314.4503 0001056 106.0851 254.0257 15.08838222 23399,6917.886,95.438,540.481,539.02,0.0
54762.0,STARLINK-5214,PAYLOAD,2023-05-22 21:53:52,15.08865204,9.86e-05,53.2157,311.1798,102.6253,257.485,0.0013325,0.00020997,0.0,0 STARLINK-5214,1 54762U 22175E   23142.91241419  .00020997  00000-0  13325-2 0  9997,2 54762  53.2157 311.1798 0000986 102.6253 257.4850 15.08865204 25660,6917.803,95.436,540.35,538.986,0.0
54762.0,STARLINK-5214,PAYLOAD,2023-05-23 02:40:02,15.08841643,0.0001047,53.2157,310.2871,98.2893,261.8218,7.825e-05,9.58e-06,0.0,0 STARLINK-5214,1 54762U 22175E   23143.11113679  .00000958  00000-0  78250-4 0  9991,2 54762  53.2157 310.2871 0001047  98.2893 261.8218 15.08841643 23533,6917.875,95.437,540.465,539.016,0.0
54762.0,STARLINK-5214,PAYLOAD,2023-05-23 21:44:39,15.08845665,9.38e-05,53.2158,306.7196,84.1677,275.9422,0.0011454,0.00017991,0.0,0 STARLINK-5214,1 54762U 22175E   23143.90601686  .00017991  00000-0  11454-2 0  9994,2 54762  53.2158 306.7196 0000938  84.1677 275.9422 15.08845665 25810,6917.863,95.437,540.377,539.079,0.0
54762.0,STARLINK-5214,PAYLOAD,2023-05-24 04:06:12,15.08842052,8.23e-05,53.2158,305.5295,97.0757,263.0329,0.00047039,7.207e-05,0.0,0 STARLINK-5214,1 54762U 22175E   23144.17097739  .00007207  00000-0  47039-3 0  9990,2 54762  53.2158 305.5295 0000823  97.0757 263.0329 15.08842052 23697,6917.874,95.437,540.308,539.17,0.0
54762.0,STARLINK-5214,PAYLOAD,2023-05-24 15:13:54,15.08844598,0.000103,53.2155,303.4476,91.5982,268.5128,0.00060566,9.366e-05,0.0,0 STARLINK-5214,1 54762U 22175E   23144.63465920  .00009366  00000-0  60566-3 0  9990,2 54762  53.2155 303.4476 0001030  91.5982 268.5128 15.08844598 25924,6917.866,95.437,540.444,539.019,0.0
54762.0,STARLINK-5214,PAYLOAD,2023-05-25 16:40:04,15.08851107,0.000109,53.2159,298.6902,86.785,273.3267,0.00049638,7.623e-05,0.0,0 STARLINK-5214,1 54762U 22175E   23145.69449750  .00007623  00000-0  49638-3 0  9991,2 54762  53.2159 298.6902 0001090  86.7850 273.3267 15.08851107 23923,6917.846,95.437,540.465,538.957,0.0
54762.0,STARLINK-5214,PAYLOAD,2023-05-25 19:50:50,15.08853258,0.0001127,53.216,298.0955,87.0318,273.0803,0.00050583,7.774e-05,0.0,0 STARLINK-5214,1 54762U 22175E   23145.82697627  .00007774  00000-0  50583-3 0  9992,2 54762  53.2160 298.0955 0001127  87.0318 273.0803 15.08853258 26106,6917.84,95.437,540.485,538.925,0.0
54762.0,STARLINK-5214,PAYLOAD,2023-05-26 10:09:19,15.08839668,0.0001152,53.2145,295.4174,100.9125,259.1997,5.3752e-05,5.68e-06,0.0,0 STARLINK-5214,1 54762U 22175E   23146.42313835  .00000568  00000-0  53752-4 0  9991,2 54762  53.2145 295.4174 0001152 100.9125 259.1997 15.08839668 24030,6917.881,95.438,540.543,538.949,0.0
54762.0,STARLINK-5214,PAYLOAD,2023-05-26 13:20:05,15.0884079,0.0001091,53.2144,294.8222,108.5924,251.5187,8.5718e-05,1.077e-05,0.0,0 STARLINK-5214,1 54762U 22175E   23146.55561812  .00001077  00000-0  85718-4 0  9998,2 54762  53.2144 294.8222 0001091 108.5924 251.5187 15.08840790 26216,6917.878,95.438,540.498,538.988,0.0
54762.0,STARLINK-5214,PAYLOAD,2023-05-26 16:30:51,15.08842957,0.0001003,53.2159,294.2297,89.5811,270.5296,6.3432e-05,7.22e-06,0.0,0 STARLINK-5214,1 54762U 22175E   23146.68809797  .00000722  00000-0  63432-4 0  9994,2 54762  53.2159 294.2297 0001003  89.5811 270.5296 15.08842957 26235,6917.871,95.437,540.43,539.042,0.0
54762.0,STARLINK-5214,PAYLOAD,2023-05-27 16:21:38,15.08840561,9.27e-05,53.2169,289.7696,90.438,269.6719,5.7231e-05,6.23e-06,0.0,0 STARLINK-5214,1 54762U 22175E   23147.68170062  .00000623  00000-0  57231-4 0  9991,2 54762  53.2169 289.7696 0000927  90.4380 269.6719 15.08840561 24229,6917.879,95.438,540.385,539.102,0.0
54762.0,STARLINK-5214,PAYLOAD,2023-05-28 01:53:57,15.08841751,8.94e-05,53.2167,287.9857,90.9888,269.1207,7.7364e-06,-1.65e-06,0.0,0 STARLINK-5214,1 54762U 22175E   23148.07914057 -.00000165  00000-0  77364-5 0  9997,2 54762  53.2167 287.9857 0000894  90.9888 269.1207 15.08841751 26442,6917.875,95.437,540.358,539.122,0.0
54762.0,STARLINK-5214,PAYLOAD,2023-05-28 16:12:25,15.08844897,9.26e-05,53.2166,285.31,84.5835,275.5263,0.0001577,2.223e-05,0.0,0 STARLINK-5214,1 54762U 22175E   23148.67529759  .00002223  00000-0  15770-3 0  9991,2 54762  53.2166 285.3100 0000926  84.5835 275.5263 15.08844897 26538,6917.865,95.437,540.371,539.09,0.0
54762.0,STARLINK-5214,PAYLOAD,2023-05-29 01:44:44,15.08843321,8.71e-05,53.2161,283.5261,82.1844,277.9247,9.2977e-05,1.192e-05,0.0,0 STARLINK-5214,1 54762U 22175E   23149.07273952  .00001192  00000-0  92977-4 0  9996,2 54762  53.2161 283.5261 0000871  82.1844 277.9247 15.08843321 24430,6917.87,95.437,540.338,539.133,0.0
54762.0,STARLINK-5214,PAYLOAD,2023-05-29 14:27:50,15.08839254,0.0001081,53.2164,281.1473,91.4543,268.6573,0.00012502,1.702e-05,0.0,0 STARLINK-5214,1 54762U 22175E   23149.60266247  .00001702  00000-0  12502-3 0  9996,2 54762  53.2164 281.1473 0001081  91.4543 268.6573 15.08839254 26672,6917.883,95.438,540.495,539.0,0.0
54762.0,STARLINK-5214,PAYLOAD,2023-05-29 16:03:12,15.08842221,9.16e-05,53.2162,280.8504,85.5516,274.5581,0.00014299,1.989e-05,0.0,0 STARLINK-5214,1 54762U 22175E   23149.66890012  .00001989  00000-0  14299-3 0  9997,2 54762  53.2162 280.8504 0000916  85.5516 274.5581 15.08842221 26685,6917.874,95.437,540.372,539.105,0.0
54762.0,STARLINK-5214,PAYLOAD,2023-05-30 01:35:31,15.08839805,8.52e-05,53.2151,279.0663,98.1971,261.9118,3.6558e-05,2.94e-06,0.0,0 STARLINK-5214,1 54762U 22175E   23150.06633962  .00000294  00000-0  36558-4 0  9993,2 54762  53.2151 279.0663 0000852  98.1971 261.9118 15.08839805 24580,6917.881,95.438,540.335,539.157,0.0
54762.0,STARLINK-5214,PAYLOAD,2023-05-30 12:43:14,15.08837209,9.8e-05,53.216,276.9847,103.9081,256.202,1.4622e-05,-5.5e-07,0.0,0 STARLINK-5214,1 54762U 22175E   23150.53002583 -.00000055  00000-0  14622-4 0  9998,2 54762  53.2160 276.9847 0000980 103.9081 256.2020 15.08837209 26812,6917.889,95.438,540.432,539.076,0.0
54762.0,STARLINK-5214,PAYLOAD,2023-05-30 17:29:23,15.08847911,9.82e-05,53.216,276.0926,96.321,263.7894,-3.5133e-06,-3.44e-06,0.0,0 STARLINK-5214,1 54762U 22175E   23150.72873899 -.00000344  00000-0 -35133-5 0  9998,2 54762  53.2160 276.0926 0000982  96.3210 263.7894 15.08847911 26848,6917.856,95.437,540.401,539.042,0.0
54762.0,STARLINK-5214,PAYLOAD,2023-05-31 14:09:23,15.08845601,8.14e-05,53.2161,272.2262,102.3397,257.7686,9.118e-05,1.164e-05,0.0,0 STARLINK-5214,1 54762U 22175E   23151.58985706  .00001164  00000-0  91180-4 0  9996,2 54762  53.2161 272.2262 0000814 102.3397 257.7686 15.08845601 26978,6917.863,95.437,540.291,539.165,0.0
